IRIDIUM 155             
1 43573U 18061E   23116.20965896  .00000386  00000+0  13086-3 0  9993
2 43573  86.4019 176.4599 0002448 100.6859 259.4613 14.34219711248816
IRIDIUM 154             
1 43574U 18061F   23116.26040539  .00000396  00000+0  13443-3 0  9996
2 43574  86.4024 176.5165 0002101  92.7770 267.3666 14.34218399248875
IRIDIUM 163             
1 43575U 18061G   23116.59020747  .00000374  00000+0  12655-3 0  9992
2 43575  86.4009 176.3269 0002350  90.8639 269.2826 14.34215518248892
IRIDIUM 156             
1 43576U 18061H   23116.56485276  .00000383  00000+0  12960-3 0  9991
2 43576  86.4019 176.3461 0002559  96.1600 263.9887 14.34218143248880
IRIDIUM 164             
1 43577U 18061J   23116.26673896  .00000148  00000+0  45900-4 0  9996
2 43577  86.4021 176.4930 0002317  90.7482 269.3980 14.34217073248881
IRIDIUM 159             
1 43578U 18061K   23116.58386968  .00000612  00000+0  21146-3 0  9994
2 43578  86.4017 176.3212 0002270  95.9442 264.2012 14.34216586248899
IRIDIUM 180             
1 43922U 19002A   23116.51359503  .00000203  00000+0  65545-4 0  9999
2 43922  86.3921 113.2744 0002241  86.1299 274.0153 14.34220837224494
IRIDIUM 176             
1 43923U 19002B   23116.45634419  .00000608  00000+0  92475-4 0  9996
2 43923  86.6055 113.3390 0002721  93.9001 266.2527 14.72264119230380
IRIDIUM 168             
1 43924U 19002C   23116.50725939  .00000161  00000+0  50253-4 0  9993
2 43924  86.3923 113.3220 0002150  88.1119 272.0323 14.34220388224476
IRIDIUM 173             
1 43925U 19002D   23116.42479897  .00000158  00000+0  49215-4 0  9996
2 43925  86.3921 113.2923 0002126  86.1664 273.9774 14.34220679224440
IRIDIUM 169             
1 43926U 19002E   23116.51246785  .00000354  00000+0  10919-3 0  9991
2 43926  86.4222 144.8612 0004941 137.4769 222.6813 14.38606979225221
IRIDIUM 172             
1 43927U 19002F   23116.55800016  .00000189  00000+0  60554-4 0  9996
2 43927  86.3921 113.2410 0002242  88.8356 271.3097 14.34219898224473
IRIDIUM 175             
1 43928U 19002G   23116.51783989  .00000616  00000+0  93707-4 0  9993
2 43928  86.1470 110.0479 0002515  91.3860 268.7645 14.72242408230384
IRIDIUM 171             
1 43929U 19002H   23116.46919894  .00000045  00000+0  91434-5 0  9996
2 43929  86.3927 113.4571 0002178  86.6939 273.4506 14.34218320224457
IRIDIUM 170             
1 43930U 19002J   23116.46248352  .00000605  00000+0  92073-4 0  9993
2 43930  86.6056 113.3414 0002588  93.1124 267.0389 14.72265815230395
IRIDIUM 167             
1 43931U 19002K   23116.46285409  .00000200  00000+0  64396-4 0  9996
2 43931  86.3921 113.2930 0002145  84.1039 276.0401 14.34218795224458
